OBJECT_NAME,OBJECT_ID,EPOCH,MEAN_MOTION,ECCENTRICITY,INCLINATION,RA_OF_ASC_NODE,ARG_OF_PERICENTER,MEAN_ANOMALY,EPHEMERIS_TYPE,CLASSIFICATION_TYPE,NORAD_CAT_ID,ELEMENT_SET_NO,REV_AT_EPOCH,BSTAR,MEAN_MOTION_DOT,MEAN_MOTION_DDOT
GEOSCAN 3 (RS92S3),2025-155T,2026-07-02T15:16:08.000544,15.35923338,.00083783,97.4547,153.6987,119.3145,240.8937,0,U,64893,999,8322,.57348775E-3,.20021E-3,0
INNOSAT 3 (RS92S0),2025-155U,2026-07-02T14:29:47.263200,15.44960574,.00081434,97.4492,155.4808,117.7338,242.4737,0,U,64894,999,8334,.83409846E-3,.39372E-3,0
KNACKSAT-2,1998-067XZ,2026-07-02T06:29:25.454400,15.61304103,.00083709,51.6255,218.5343,281.3126,78.6927,0,U,67683,999,2263,.55338795E-3,.47788E-3,0
