GEOSCAN-3 (RS92S3)
1 64893U 25155T   26183.63620371  .00020021  00000-0  57349-3 0  9992
2 64893  97.4547 153.6987 0008378 119.3145 240.8937 15.35923338 83227
INNOSAT3 (RS92S0)
1 64894U 25155U   26183.60401925  .00039372  00000-0  83410-3 0  9999
2 64894  97.4492 155.4808 0008143 117.7338 242.4737 15.44960574 83347
KNACKSAT-2
1 67683U 98067XZ  26183.27043350  .00047788  00000-0  55339-3 0  9996
2 67683  51.6255 218.5343 0008371 281.3126  78.6927 15.61304103 22630
